STARLINK-6081           
1 56108U 23046R   26067.63522089  .00018168  00000+0  13507-2 0  9992
2 56108  43.0031 164.6545 0000578 245.9294 114.1488 15.02697277161909
KOMPSAT-7               
1 66820U 25279A   26068.87103100  .00004022  00000+0  31599-3 0  9996
2 66820  97.6738  18.4558 0009895 343.5135  16.5766 15.01421798 14723
