[{"OBJECT_NAME":"STARLINK-6081","OBJECT_ID":"2023-046R","EPOCH":"2026-03-08T15:14:43.084896","MEAN_MOTION":15.02697277,"ECCENTRICITY":5.782e-5,"INCLINATION":43.0031,"RA_OF_ASC_NODE":164.6545,"ARG_OF_PERICENTER":245.9294,"MEAN_ANOMALY":114.1488,"EPHEMERIS_TYPE":0,"CLASSIFICATION_TYPE":"U","NORAD_CAT_ID":56108,"ELEMENT_SET_NO":999,"REV_AT_EPOCH":16190,"BSTAR":0.0013507201,"MEAN_MOTION_DOT":0.00018168,"MEAN_MOTION_DDOT":0},{"OBJECT_NAME":"KOMPSAT-7","OBJECT_ID":"2025-279A","EPOCH":"2026-03-09T20:54:17.078400","MEAN_MOTION":15.01421798,"ECCENTRICITY":0.00098953,"INCLINATION":97.6738,"RA_OF_ASC_NODE":18.4558,"ARG_OF_PERICENTER":343.5135,"MEAN_ANOMALY":16.5766,"EPHEMERIS_TYPE":0,"CLASSIFICATION_TYPE":"U","NORAD_CAT_ID":66820,"ELEMENT_SET_NO":999,"REV_AT_EPOCH":1472,"BSTAR":0.00031598708,"MEAN_MOTION_DOT":4.022e-5,"MEAN_MOTION_DDOT":0}]
